OBJECT_NAME,OBJECT_ID,EPOCH,MEAN_MOTION,ECCENTRICITY,INCLINATION,RA_OF_ASC_NODE,ARG_OF_PERICENTER,MEAN_ANOMALY,EPHEMERIS_TYPE,CLASSIFICATION_TYPE,NORAD_CAT_ID,ELEMENT_SET_NO,REV_AT_EPOCH,BSTAR,MEAN_MOTION_DOT,MEAN_MOTION_DDOT
QIANFAN-145,2026-108A,2026-06-15T00:46:11.522784,14.02709330,.00109214,89.0102,22.4644,125.5635,234.6565,0,U,69104,999,403,-.13605387E+1,-.1955834E-1,0
QIANFAN-146,2026-108B,2026-06-15T01:40:08.037408,14.10228719,.00219756,89.0109,22.4338,118.7449,241.5947,0,U,69105,999,405,-.10917264E+1,-.1790175E-1,0
QIANFAN-147,2026-108C,2026-06-15T00:15:47.758752,14.04025606,.00100991,89.0098,22.4609,127.3441,232.8662,0,U,69106,999,403,-.13242868E+1,-.1949328E-1,0
QIANFAN-148,2026-108D,2026-06-15T01:49:57.827136,14.03427831,.00125953,89.0097,22.4519,133.2745,226.9488,0,U,69107,999,404,-.12612374E+1,-.1824084E-1,0
QIANFAN-149,2026-108E,2026-06-14T15:33:22.270752,14.03893931,.00175301,89.0107,22.5000,139.6291,220.6195,0,U,69108,999,398,-.13528958E+1,-.198591E-1,0
QIANFAN-150,2026-108F,2026-06-15T01:25:43.404960,14.06156737,.00172633,89.0108,22.4515,121.7388,238.5480,0,U,69109,999,404,-.13633862E+1,-.2077194E-1,0
QIANFAN-151,2026-108G,2026-06-15T01:18:56.012544,14.04829492,.00129007,89.0107,22.4500,123.5350,236.7065,0,U,69110,999,404,-.12873077E+1,-.1924678E-1,0
QIANFAN-152,2026-108H,2026-06-15T01:02:57.487488,14.06513037,.00162698,89.0101,22.4488,121.8532,238.4236,0,U,69111,999,404,-.1335286E+1,-.2049278E-1,0
QIANFAN-153,2026-108J,2026-06-15T00:57:42.460992,14.05715786,.00185081,89.0099,22.4471,125.4893,234.8020,0,U,69112,999,404,-.13902497E+1,-.2100041E-1,0
QIANFAN-154,2026-108K,2026-06-15T02:26:22.046784,14.05684826,.00132301,89.0109,22.4395,119.9806,240.2691,0,U,69113,999,405,-.12762954E+1,-.1936964E-1,0
QIANFAN-155,2026-108L,2026-06-15T00:53:11.119200,14.05344057,.00142978,89.0105,22.4482,125.6419,234.6097,0,U,69114,999,404,-.13371901E+1,-.2011724E-1,0
QIANFAN-156,2026-108M,2026-06-15T02:09:17.627904,14.06664979,.00163165,89.0115,22.4389,114.4577,245.8309,0,U,69115,999,405,-.11723634E+1,-.1799661E-1,0
QIANFAN-157,2026-108N,2026-06-15T01:19:37.929504,14.09124790,.00218102,89.0105,22.4322,121.2993,239.0331,0,U,69116,999,405,-.11155061E+1,-.1792563E-1,0
QIANFAN-158,2026-108P,2026-06-15T01:52:22.118592,14.07507552,.00182995,89.0107,22.4354,114.0477,246.2624,0,U,69117,999,405,-.10378267E+1,-.1630033E-1,0
QIANFAN-159,2026-108Q,2026-06-15T01:42:04.717152,14.08726027,.00206977,89.0097,22.4337,110.5886,249.7521,0,U,69118,999,405,-.12083977E+1,-.1939569E-1,0
QIANFAN-160,2026-108R,2026-06-15T03:21:43.308576,14.11952593,.00158864,89.0112,22.4263,116.5257,243.7559,0,U,69119,999,406,.14681669E-4,.41E-6,0
QIANFAN-161,2026-108S,2026-06-15T01:21:33.229440,14.09555758,.00208515,89.0111,22.4327,124.9273,235.3875,0,U,69120,999,405,-.1104511E+1,-.1788802E-1,0
QIANFAN-162,2026-108T,2026-06-15T01:15:47.645856,14.10876262,.00192635,89.0108,22.4315,131.0717,229.2136,0,U,69121,999,405,-.93570728E+0,-.1567035E-1,0
SMILE,2026-109A,2026-05-24T15:40:35.120928,14.57062785,.00091232,70.0007,229.2745,259.5159,100.4951,0,U,69123,999,80,-.42378883E-3,-.1976E-4,0
STARLINK-37726,2026-110A,2026-06-15T07:05:25.343808,15.49210076,.00015149,97.2838,2.4960,83.8623,276.2801,0,U,69124,999,530,.50204221E-3,.27329E-3,0
STARLINK-37722,2026-110B,2026-06-15T07:00:30.570336,15.49199007,.00017205,97.2827,2.6535,91.5683,268.5765,0,U,69125,999,531,.11100568E-2,.60772E-3,0
STARLINK-37715,2026-110C,2026-06-15T06:00:02.000160,15.33465706,.00019026,97.2847,2.6403,89.0007,99.5012,0,U,69126,999,534,-.64977866E-3,-.21009E-3,0
STARLINK-37706,2026-110D,2026-06-15T06:00:02.000160,15.33463206,.00017762,97.2849,2.6474,86.7766,116.7146,0,U,69127,999,534,-.62059591E-3,-.2007E-3,0
STARLINK-37723,2026-110E,2026-06-15T06:00:02.000160,15.33454998,.00015745,97.2845,2.6544,94.1736,124.3178,0,U,69128,999,534,-.34840339E-3,-.1131E-3,0
STARLINK-37720,2026-110F,2026-06-15T02:13:44.268672,15.49225271,.00017716,97.2846,2.3116,97.2912,262.8541,0,U,69129,999,527,.13046088E-2,.71604E-3,0
STARLINK-37533,2026-110G,2026-06-15T06:00:02.000160,15.33445371,.00015067,97.2846,2.6720,94.0980,169.3963,0,U,69130,999,534,-.55055064E-3,-.17808E-3,0
STARLINK-37530,2026-110H,2026-06-15T06:00:02.000160,15.33457499,.00021796,97.2844,2.6796,86.4544,192.0451,0,U,69131,999,534,-.54746557E-3,-.17716E-3,0
STARLINK-37660,2026-110J,2026-06-15T06:00:02.000160,15.45841501,.00021708,97.2851,2.6508,79.7046,125.4838,0,U,69132,999,534,-.57032886E-1,-.2454988E-1,0
STARLINK-37633,2026-110K,2026-06-15T01:51:46.888992,15.48719339,.00019644,97.2836,2.4857,129.8851,230.2573,0,U,69133,999,528,-.5377724E-2,-.27792E-2,0
